{"fetched_at":"2026-07-15T17:47:16.434Z","source":"https://celestrak.org/NORAD/elements/gp.php?NAME=ICEYE&FORMAT=JSON","constellation":"iceye","records":[{"OBJECT_NAME":"ICEYE-X40","OBJECT_ID":"2024-149CK","EPOCH":"2026-07-15T03:46:08.982624","CLASSIFICATION_TYPE":"U","MEAN_MOTION":14.98070104,"ECCENTRICITY":0.0003998,"INCLINATION":97.6795,"RA_OF_ASC_NODE":272.2031,"ARG_OF_PERICENTER":6.477,"MEAN_ANOMALY":353.6503,"EPHEMERIS_TYPE":0,"NORAD_CAT_ID":60549,"ELEMENT_SET_NO":999,"REV_AT_EPOCH":10426,"BSTAR":0.00012621,"MEAN_MOTION_DOT":0.00001435,"MEAN_MOTION_DDOT":0},{"OBJECT_NAME":"ICEYE-X49","OBJECT_ID":"2024-247H","EPOCH":"2026-07-13T10:34:12.990432","CLASSIFICATION_TYPE":"U","MEAN_MOTION":15.13608718,"ECCENTRICITY":0.00014215,"INCLINATION":44.9963,"RA_OF_ASC_NODE":217.1632,"ARG_OF_PERICENTER":241.3726,"MEAN_ANOMALY":118.7009,"EPHEMERIS_TYPE":0,"NORAD_CAT_ID":62384,"ELEMENT_SET_NO":999,"REV_AT_EPOCH":8615,"BSTAR":0.000095124861,"MEAN_MOTION_DOT":0.0000148,"MEAN_MOTION_DDOT":0},{"OBJECT_NAME":"ICEYE-X47","OBJECT_ID":"2024-247N","EPOCH":"2026-07-15T01:35:34.965024","CLASSIFICATION_TYPE":"U","MEAN_MOTION":15.13483973,"ECCENTRICITY":0.0001423,"INCLINATION":44.9947,"RA_OF_ASC_NODE":208.0704,"ARG_OF_PERICENTER":345.5506,"MEAN_ANOMALY":14.533,"EPHEMERIS_TYPE":0,"NORAD_CAT_ID":62389,"ELEMENT_SET_NO":999,"REV_AT_EPOCH":8640,"BSTAR":0.000050188,"MEAN_MOTION_DOT":0.00000656,"MEAN_MOTION_DDOT":0},{"OBJECT_NAME":"ICEYE-X42","OBJECT_ID":"2025-009CT","EPOCH":"2026-07-15T04:13:42.690720","CLASSIFICATION_TYPE":"U","MEAN_MOTION":14.91854172,"ECCENTRICITY":0.0001279,"INCLINATION":97.739,"RA_OF_ASC_NODE":273.9865,"ARG_OF_PERICENTER":97.5887,"MEAN_ANOMALY":262.5477,"EPHEMERIS_TYPE":0,"NORAD_CAT_ID":62698,"ELEMENT_SET_NO":999,"REV_AT_EPOCH":8146,"BSTAR":0.00010949,"MEAN_MOTION_DOT":0.0000105,"MEAN_MOTION_DDOT":0},{"OBJECT_NAME":"ICEYE-X41","OBJECT_ID":"2025-009CV","EPOCH":"2026-07-15T05:07:36.298848","CLASSIFICATION_TYPE":"U","MEAN_MOTION":14.9691262,"ECCENTRICITY":0.0000279,"INCLINATION":97.706,"RA_OF_ASC_NODE":275.3336,"ARG_OF_PERICENTER":290.3274,"MEAN_ANOMALY":69.7917,"EPHEMERIS_TYPE":0,"NORAD_CAT_ID":62700,"ELEMENT_SET_NO":999,"REV_AT_EPOCH":8160,"BSTAR":0.00013546,"MEAN_MOTION_DOT":0.00001498,"MEAN_MOTION_DDOT":0},{"OBJECT_NAME":"ICEYE-X45","OBJECT_ID":"2025-009DA","EPOCH":"2026-07-15T04:45:00.033120","CLASSIFICATION_TYPE":"U","MEAN_MOTION":15.00840557,"ECCENTRICITY":0.0001192,"INCLINATION":97.8415,"RA_OF_ASC_NODE":283.1154,"ARG_OF_PERICENTER":85.8166,"MEAN_ANOMALY":274.3194,"EPHEMERIS_TYPE":0,"NORAD_CAT_ID":62705,"ELEMENT_SET_NO":999,"REV_AT_EPOCH":8188,"BSTAR":0.00036725,"MEAN_MOTION_DOT":0.00004607,"MEAN_MOTION_DDOT":0},{"OBJECT_NAME":"ICEYE-X44","OBJECT_ID":"2025-009DC","EPOCH":"2026-07-15T04:13:18.693120","CLASSIFICATION_TYPE":"U","MEAN_MOTION":14.96167549,"ECCENTRICITY":0.0002507,"INCLINATION":97.7058,"RA_OF_ASC_NODE":274.8603,"ARG_OF_PERICENTER":72.5085,"MEAN_ANOMALY":287.641,"EPHEMERIS_TYPE":0,"NORAD_CAT_ID":62707,"ELEMENT_SET_NO":999,"REV_AT_EPOCH":10412,"BSTAR":0.00017072,"MEAN_MOTION_DOT":0.00001866,"MEAN_MOTION_DDOT":0},{"OBJECT_NAME":"ICEYE-X48","OBJECT_ID":"2025-052AV","EPOCH":"2026-07-15T04:14:53.479104","CLASSIFICATION_TYPE":"U","MEAN_MOTION":14.98125611,"ECCENTRICITY":0.0003977,"INCLINATION":97.6838,"RA_OF_ASC_NODE":87.9345,"ARG_OF_PERICENTER":104.4007,"MEAN_ANOMALY":255.7657,"EPHEMERIS_TYPE":0,"NORAD_CAT_ID":63253,"ELEMENT_SET_NO":999,"REV_AT_EPOCH":7286,"BSTAR":0.00015418,"MEAN_MOTION_DOT":0.00001768,"MEAN_MOTION_DDOT":0},{"OBJECT_NAME":"ICEYE-X50","OBJECT_ID":"2025-052AX","EPOCH":"2026-07-15T04:42:07.874208","CLASSIFICATION_TYPE":"U","MEAN_MOTION":14.95365428,"ECCENTRICITY":0.000346,"INCLINATION":97.6858,"RA_OF_ASC_NODE":87.5497,"ARG_OF_PERICENTER":101.4069,"MEAN_ANOMALY":258.7541,"EPHEMERIS_TYPE":0,"NORAD_CAT_ID":63255,"ELEMENT_SET_NO":999,"REV_AT_EPOCH":7283,"BSTAR":0.000079015,"MEAN_MOTION_DOT":0.00000815,"MEAN_MOTION_DDOT":0},{"OBJECT_NAME":"ICEYE-X51","OBJECT_ID":"2025-052AZ","EPOCH":"2026-07-15T04:36:42.261120","CLASSIFICATION_TYPE":"U","MEAN_MOTION":15.00883835,"ECCENTRICITY":0.0002064,"INCLINATION":97.761,"RA_OF_ASC_NODE":91.2377,"ARG_OF_PERICENTER":67.2955,"MEAN_ANOMALY":292.8486,"EPHEMERIS_TYPE":0,"NORAD_CAT_ID":63257,"ELEMENT_SET_NO":999,"REV_AT_EPOCH":7300,"BSTAR":0.00016292,"MEAN_MOTION_DOT":0.00002013,"MEAN_MOTION_DDOT":0},{"OBJECT_NAME":"ICEYE-X46","OBJECT_ID":"2025-052BA","EPOCH":"2026-07-15T03:01:03.541152","CLASSIFICATION_TYPE":"U","MEAN_MOTION":14.95367201,"ECCENTRICITY":0.0001712,"INCLINATION":97.6859,"RA_OF_ASC_NODE":87.4799,"ARG_OF_PERICENTER":82.1219,"MEAN_ANOMALY":278.0196,"EPHEMERIS_TYPE":0,"NORAD_CAT_ID":63258,"ELEMENT_SET_NO":999,"REV_AT_EPOCH":7282,"BSTAR":0.00010308,"MEAN_MOTION_DOT":0.00001081,"MEAN_MOTION_DDOT":0},{"OBJECT_NAME":"ICEYE-X54","OBJECT_ID":"2025-135AU","EPOCH":"2026-07-15T03:24:52.160832","CLASSIFICATION_TYPE":"U","MEAN_MOTION":14.94732184,"ECCENTRICITY":0.0002047,"INCLINATION":97.7746,"RA_OF_ASC_NODE":310.2984,"ARG_OF_PERICENTER":180.6161,"MEAN_ANOMALY":179.5057,"EPHEMERIS_TYPE":0,"NORAD_CAT_ID":64570,"ELEMENT_SET_NO":999,"REV_AT_EPOCH":5807,"BSTAR":0.00015667,"MEAN_MOTION_DOT":0.00001644,"MEAN_MOTION_DDOT":0},{"OBJECT_NAME":"ICEYE-X52","OBJECT_ID":"2025-135AW","EPOCH":"2026-07-15T04:58:11.894304","CLASSIFICATION_TYPE":"U","MEAN_MOTION":14.93652853,"ECCENTRICITY":0.0001242,"INCLINATION":97.7768,"RA_OF_ASC_NODE":310.152,"ARG_OF_PERICENTER":187.1846,"MEAN_ANOMALY":172.9356,"EPHEMERIS_TYPE":0,"NORAD_CAT_ID":64572,"ELEMENT_SET_NO":999,"REV_AT_EPOCH":5806,"BSTAR":0.00011081,"MEAN_MOTION_DOT":0.00001114,"MEAN_MOTION_DDOT":0},{"OBJECT_NAME":"ICEYE-X56","OBJECT_ID":"2025-135AY","EPOCH":"2026-07-15T04:43:09.112800","CLASSIFICATION_TYPE":"U","MEAN_MOTION":14.95762055,"ECCENTRICITY":0.0001389,"INCLINATION":97.7767,"RA_OF_ASC_NODE":310.9403,"ARG_OF_PERICENTER":190.4124,"MEAN_ANOMALY":169.7068,"EPHEMERIS_TYPE":0,"NORAD_CAT_ID":64574,"ELEMENT_SET_NO":999,"REV_AT_EPOCH":5811,"BSTAR":0.00018109,"MEAN_MOTION_DOT":0.00001961,"MEAN_MOTION_DDOT":0},{"OBJECT_NAME":"ICEYE-X57","OBJECT_ID":"2025-135BC","EPOCH":"2026-07-15T04:49:53.671296","CLASSIFICATION_TYPE":"U","MEAN_MOTION":15.00861517,"ECCENTRICITY":0.0002151,"INCLINATION":97.8026,"RA_OF_ASC_NODE":312.7559,"ARG_OF_PERICENTER":58.9454,"MEAN_ANOMALY":301.198,"EPHEMERIS_TYPE":0,"NORAD_CAT_ID":64578,"ELEMENT_SET_NO":999,"REV_AT_EPOCH":5822,"BSTAR":0.00020313,"MEAN_MOTION_DOT":0.00002522,"MEAN_MOTION_DDOT":0},{"OBJECT_NAME":"ICEYE-X55","OBJECT_ID":"2025-135BF","EPOCH":"2026-07-15T04:53:53.670624","CLASSIFICATION_TYPE":"U","MEAN_MOTION":14.9536263,"ECCENTRICITY":0.0001874,"INCLINATION":97.7767,"RA_OF_ASC_NODE":310.7734,"ARG_OF_PERICENTER":233.4761,"MEAN_ANOMALY":126.6288,"EPHEMERIS_TYPE":0,"NORAD_CAT_ID":64581,"ELEMENT_SET_NO":999,"REV_AT_EPOCH":5810,"BSTAR":0.00018503,"MEAN_MOTION_DOT":0.00001984,"MEAN_MOTION_DDOT":0}]}
