ICEYE-X40               
1 60549U 24149CK  26196.15704841  .00001435  00000+0  12621-3 0  9995
2 60549  97.6795 272.2031 0003998   6.4770 353.6503 14.98070104104261
ICEYE-X49               
1 62384U 24247H   26194.44042813  .00001480  00000+0  95125-4 0  9998
2 62384  44.9963 217.1632 0001421 241.3726 118.7009 15.13608718 86151
ICEYE-X47               
1 62389U 24247N   26196.06637691  .00000656  00000+0  50188-4 0  9991
2 62389  44.9947 208.0704 0001423 345.5506  14.5330 15.13483973 86404
ICEYE-X42               
1 62698U 25009CT  26196.17618855  .00001050  00000+0  10949-3 0  9993
2 62698  97.7390 273.9865 0001279  97.5887 262.5477 14.91854172 81465
ICEYE-X41               
1 62700U 25009CV  26196.21361457  .00001498  00000+0  13546-3 0  9997
2 62700  97.7060 275.3336 0000279 290.3274  69.7917 14.96912620 81604
ICEYE-X45               
1 62705U 25009DA  26196.19791705  .00004607  00000+0  36725-3 0  9991
2 62705  97.8415 283.1154 0001192  85.8166 274.3194 15.00840557 81887
ICEYE-X44               
1 62707U 25009DC  26196.17591080  .00001866  00000+0  17072-3 0  9993
2 62707  97.7058 274.8603 0002507  72.5085 287.6410 14.96167549104129
ICEYE-X48               
1 63253U 25052AV  26196.17700786  .00001768  00000+0  15418-3 0  9996
2 63253  97.6838  87.9345 0003977 104.4007 255.7657 14.98125611 72868
ICEYE-X50               
1 63255U 25052AX  26196.19592447  .00000815  00000+0  79015-4 0  9999
2 63255  97.6858  87.5497 0003460 101.4069 258.7541 14.95365428 72839
ICEYE-X51               
1 63257U 25052AZ  26196.19215580  .00002013  00000+0  16292-3 0  9990
2 63257  97.7610  91.2377 0002064  67.2955 292.8486 15.00883835 73000
ICEYE-X46               
1 63258U 25052BA  26196.12573543  .00001081  00000+0  10308-3 0  9996
2 63258  97.6859  87.4799 0001712  82.1219 278.0196 14.95367201 72828
ICEYE-X54               
1 64570U 25135AU  26196.14227038  .00001644  00000+0  15667-3 0  9991
2 64570  97.7746 310.2984 0002047 180.6161 179.5057 14.94732184 58074
ICEYE-X52               
1 64572U 25135AW  26196.20708211  .00001114  00000+0  11081-3 0  9995
2 64572  97.7768 310.1520 0001242 187.1846 172.9356 14.93652853 58064
ICEYE-X56               
1 64574U 25135AY  26196.19663325  .00001961  00000+0  18109-3 0  9999
2 64574  97.7767 310.9403 0001389 190.4124 169.7068 14.95762055 58119
ICEYE-X57               
1 64578U 25135BC  26196.20131564  .00002522  00000+0  20313-3 0  9994
2 64578  97.8026 312.7559 0002151  58.9454 301.1980 15.00861517 58223
ICEYE-X55               
1 64581U 25135BF  26196.20409341  .00001984  00000+0  18503-3 0  9998
2 64581  97.7767 310.7734 0001874 233.4761 126.6288 14.95362630 58106
